{"type": "FeatureCollection", "features": [{"type": "Feature", "properties": {"norad_id": 66310, "name": "LVM3 R/B", "group": "last-30-days", "lat": -6.188975085222804, "lon": 126.87713284140135, "alt_km": 13680.265233498732, "timestamp": "2025-12-02T21:34:00.040372+00:00", "meta": {"OBJECT_NAME": "LVM3 R/B", "OBJECT_ID": "2025-249A", "EPOCH": "2025-12-01T23:22:58.655136", "MEAN_MOTION": 3.14324392, "ECCENTRICITY": 0.6668498, "INCLINATION": 21.3496, "RA_OF_ASC_NODE": 143.6271, "ARG_OF_PERICENTER": 208.7099, "MEAN_ANOMALY": 87.5029, "EPHEMERIS_TYPE": 0, "CLASSIFICATION_TYPE": "U", "NORAD_CAT_ID": 66310, "ELEMENT_SET_NO": 999, "REV_AT_EPOCH": 94, "BSTAR": 0.001238, "MEAN_MOTION_DOT": 0.00046343, "MEAN_MOTION_DDOT": -6.6665e-07}, "tle": {"line1": "1 66310U 25249A   25335.97428999  .00046343 -66665-6  12380-2 0  9995", "line2": "2 66310  21.3496 143.6271 6668498 208.7099  87.5029  3.14324392   944"}}, "geometry": {"type": "Point", "coordinates": [126.87713284140135, -6.188975085222804]}}, {"type": "Feature", "properties": {"norad_id": 66311, "name": "CMS-03 (GSAT-7R)", "group": "last-30-days", "lat": -0.09874672012911612, "lon": 128.95779205343507, "alt_km": 35771.4050556278, "timestamp": "2025-12-02T21:34:00.040418+00:00", "meta": {"OBJECT_NAME": "CMS-03 (GSAT-7R)", "OBJECT_ID": "2025-249B", "EPOCH": "2025-12-02T07:22:54.326208", "MEAN_MOTION": 1.00268468, "ECCENTRICITY": 0.0003994, "INCLINATION": 0.1671, "RA_OF_ASC_NODE": 272.066, "ARG_OF_PERICENTER": 195.6706, "MEAN_ANOMALY": 167.883, "EPHEMERIS_TYPE": 0, "CLASSIFICATION_TYPE": "U", "NORAD_CAT_ID": 66311, "ELEMENT_SET_NO": 999, "REV_AT_EPOCH": 37, "BSTAR": 0, "MEAN_MOTION_DOT": -2.36e-06, "MEAN_MOTION_DDOT": 0}, "tle": {"line1": "1 66311U 25249B   25336.30757322 -.00000236  00000+0  00000+0 0  9997", "line2": "2 66311   0.1671 272.0660 0003994 195.6706 167.8830  1.00268468   374"}}, "geometry": {"type": "Point", "coordinates": [128.95779205343507, -0.09874672012911612]}}, {"type": "Feature", "properties": {"norad_id": 66313, "name": "YAOGAN-46", "group": "last-30-days", "lat": -13.210998674395663, "lon": -41.290211608206135, "alt_km": 7411.3619286582225, "timestamp": "2025-12-02T21:34:00.040440+00:00", "meta": {"OBJECT_NAME": "YAOGAN-46", "OBJECT_ID": "2025-250A", "EPOCH": "2025-11-23T01:44:02.775840", "MEAN_MOTION": 5.35115916, "ECCENTRICITY": 0.00492374, "INCLINATION": 20.0335, "RA_OF_ASC_NODE": 104.8243, "ARG_OF_PERICENTER": 135.6954, "MEAN_ANOMALY": 224.7061, "EPHEMERIS_TYPE": 0, "CLASSIFICATION_TYPE": "U", "NORAD_CAT_ID": 66313, "ELEMENT_SET_NO": 999, "REV_AT_EPOCH": 114, "BSTAR": 0, "MEAN_MOTION_DOT": -7e-08, "MEAN_MOTION_DDOT": 0}, "tle": {"line1": "1 66313U 25250A   25327.07225435 -.00000007  00000+0  00000+0 0  9996", "line2": "2 66313  20.0335 104.8243 0049237 135.6954 224.7061  5.35115916  1148"}}, "geometry": {"type": "Point", "coordinates": [-41.290211608206135, -13.210998674395663]}}, {"type": "Feature", "properties": {"norad_id": 66315, "name": "SENTINEL-1D", "group": "last-30-days", "lat": -69.70822260829823, "lon": 139.12826742861944, "alt_km": 700.9583980252846, "timestamp": "2025-12-02T21:34:00.040456+00:00", "meta": {"OBJECT_NAME": "SENTINEL-1D", "OBJECT_ID": "2025-251A", "EPOCH": "2025-12-02T10:32:58.403040", "MEAN_MOTION": 14.5991009, "ECCENTRICITY": 0.0002584, "INCLINATION": 98.1924, "RA_OF_ASC_NODE": 341.6058, "ARG_OF_PERICENTER": 155.6832, "MEAN_ANOMALY": 204.4491, "EPHEMERIS_TYPE": 0, "CLASSIFICATION_TYPE": "U", "NORAD_CAT_ID": 66315, "ELEMENT_SET_NO": 999, "REV_AT_EPOCH": 403, "BSTAR": 7.4229e-05, "MEAN_MOTION_DOT": 3.09e-06, "MEAN_MOTION_DDOT": 0}, "tle": {"line1": "1 66315U 25251A   25336.43956485  .00000309  00000+0  74229-4 0  9998", "line2": "2 66315  98.1924 341.6058 0002584 155.6832 204.4491 14.59910090  4031"}}, "geometry": {"type": "Point", "coordinates": [139.12826742861944, -69.70822260829823]}}, {"type": "Feature", "properties": {"norad_id": 66316, "name": "QPS-SAR-14 (YACHIHOKO-I)", "group": "last-30-days", "lat": 1.7106781170142131, "lon": -52.565440124870676, "alt_km": 574.4580857460796, "timestamp": "2025-12-02T21:34:00.040469+00:00", "meta": {"OBJECT_NAME": "QPS-SAR-14 (YACHIHOKO-I)", "OBJECT_ID": "2025-252A", "EPOCH": "2025-12-01T22:22:08.570496", "MEAN_MOTION": 14.97516948, "ECCENTRICITY": 0.00069195, "INCLINATION": 42.003, "RA_OF_ASC_NODE": 134.6343, "ARG_OF_PERICENTER": 75.2493, "MEAN_ANOMALY": 284.9098, "EPHEMERIS_TYPE": 0, "CLASSIFICATION_TYPE": "U", "NORAD_CAT_ID": 66316, "ELEMENT_SET_NO": 999, "REV_AT_EPOCH": 391, "BSTAR": 0.00059360417, "MEAN_MOTION_DOT": 6.864e-05, "MEAN_MOTION_DDOT": 0}, "tle": {"line1": "1 66316U 25252A   25335.93204364  .00006864  00000+0  59360-3 0  9996", "line2": "2 66316  42.0030 134.6343 0006919  75.2493 284.9098 14.97516948  3919"}}, "geometry": {"type": "Point", "coordinates": [-52.565440124870676, 1.7106781170142131]}}, {"type": "Feature", "properties": {"norad_id": 66317, "name": "ELECTRON R/B", "group": "last-30-days", "lat": 31.954516831230215, "lon": -113.09381808944292, "alt_km": 220.3440255761825, "timestamp": "2025-12-02T21:34:00.040483+00:00", "meta": {"OBJECT_NAME": "ELECTRON R/B", "OBJECT_ID": "2025-252B", "EPOCH": "2025-12-02T16:34:05.009664", "MEAN_MOTION": 16.0533306, "ECCENTRICITY": 0.0095405, "INCLINATION": 41.9863, "RA_OF_ASC_NODE": 112.1675, "ARG_OF_PERICENTER": 66.2143, "MEAN_ANOMALY": 294.869, "EPHEMERIS_TYPE": 0, "CLASSIFICATION_TYPE": "U", "NORAD_CAT_ID": 66317, "ELEMENT_SET_NO": 999, "REV_AT_EPOCH": 423, "BSTAR": 0.0016884, "MEAN_MOTION_DOT": 0.02343617, "MEAN_MOTION_DDOT": 8.0902e-06}, "tle": {"line1": "1 66317U 25252B   25336.69033576  .02343617  80902-5  16884-2 0  9996", "line2": "2 66317  41.9863 112.1675 0095405  66.2143 294.8690 16.05333060  4238"}}, "geometry": {"type": "Point", "coordinates": [-113.09381808944292, 31.954516831230215]}}, {"type": "Feature", "properties": {"norad_id": 66319, "name": "STARLINK-35442", "group": "last-30-days", "lat": -39.323988971799636, "lon": -18.94242371749797, "alt_km": 446.4965943940342, "timestamp": "2025-12-02T21:34:00.040495+00:00", "meta": {"OBJECT_NAME": "STARLINK-35442", "OBJECT_ID": "2025-253A", "EPOCH": "2025-12-02T12:00:05.998752", "MEAN_MOTION": 15.40646446, "ECCENTRICITY": 0.0001205, "INCLINATION": 43.0009, "RA_OF_ASC_NODE": 44.8849, "ARG_OF_PERICENTER": 294.5991, "MEAN_ANOMALY": 303.9764, "EPHEMERIS_TYPE": 0, "CLASSIFICATION_TYPE": "U", "NORAD_CAT_ID": 66319, "ELEMENT_SET_NO": 999, "REV_AT_EPOCH": 538, "BSTAR": 0.0011276, "MEAN_MOTION_DOT": 0.00047005, "MEAN_MOTION_DDOT": 0}, "tle": {"line1": "1 66319U 25253A   25336.50006943  .00047005  00000+0  11276-2 0  9992", "line2": "2 66319  43.0009  44.8849 0001205 294.5991 303.9764 15.40646446  5385"}}, "geometry": {"type": "Point", "coordinates": [-18.94242371749797, -39.323988971799636]}}, {"type": "Feature", "properties": {"norad_id": 66320, "name": "STARLINK-34616", "group": "last-30-days", "lat": 32.556521328216014, "lon": 85.53701013116029, "alt_km": 410.324377967042, "timestamp": "2025-12-02T21:34:00.040506+00:00", "meta": {"OBJECT_NAME": "STARLINK-34616", "OBJECT_ID": "2025-253B", "EPOCH": "2025-12-02T12:04:03.392256", "MEAN_MOTION": 15.5059712, "ECCENTRICITY": 0.000162, "INCLINATION": 43.0005, "RA_OF_ASC_NODE": 44.6062, "ARG_OF_PERICENTER": 274.0056, "MEAN_ANOMALY": 86.0619, "EPHEMERIS_TYPE": 0, "CLASSIFICATION_TYPE": "U", "NORAD_CAT_ID": 66320, "ELEMENT_SET_NO": 999, "REV_AT_EPOCH": 542, "BSTAR": 0.0018492, "MEAN_MOTION_DOT": 0.00109746, "MEAN_MOTION_DDOT": 0}, "tle": {"line1": "1 66320U 25253B   25336.50281704  .00109746  00000+0  18492-2 0  9992", "line2": "2 66320  43.0005  44.6062 0001620 274.0056  86.0619 15.50597120  5422"}}, "geometry": {"type": "Point", "coordinates": [85.53701013116029, 32.556521328216014]}}, {"type": "Feature", "properties": {"norad_id": 66321, "name": "STARLINK-34615", "group": "last-30-days", "lat": 1.245112320396656, "lon": 42.864982873166234, "alt_km": 375.10608409041834, "timestamp": "2025-12-02T21:34:00.040517+00:00", "meta": {"OBJECT_NAME": "STARLINK-34615", "OBJECT_ID": "2025-253C", "EPOCH": "2025-12-01T13:21:43.206912", "MEAN_MOTION": 15.63263158, "ECCENTRICITY": 0.00023769, "INCLINATION": 42.9996, "RA_OF_ASC_NODE": 49.5325, "ARG_OF_PERICENTER": 5.4675, "MEAN_ANOMALY": 354.6216, "EPHEMERIS_TYPE": 0, "CLASSIFICATION_TYPE": "U", "NORAD_CAT_ID": 66321, "ELEMENT_SET_NO": 999, "REV_AT_EPOCH": 520, "BSTAR": 0.0016579406, "MEAN_MOTION_DOT": 0.00159038, "MEAN_MOTION_DDOT": 0}, "tle": {"line1": "1 66321U 25253C   25335.55675008  .00159038  00000+0  16579-2 0  9994", "line2": "2 66321  42.9996  49.5325 0002376   5.4675 354.6216 15.63263158  5206"}}, "geometry": {"type": "Point", "coordinates": [42.864982873166234, 1.245112320396656]}}, {"type": "Feature", "properties": {"norad_id": 66322, "name": "STARLINK-35292", "group": "last-30-days", "lat": -20.647148826924543, "lon": 18.64225329908395, "alt_km": 445.1345843405097, "timestamp": "2025-12-02T21:34:00.040529+00:00", "meta": {"OBJECT_NAME": "STARLINK-35292", "OBJECT_ID": "2025-253D", "EPOCH": "2025-12-02T06:00:02.999808", "MEAN_MOTION": 15.40655905, "ECCENTRICITY": 0.00016913, "INCLINATION": 43.0008, "RA_OF_ASC_NODE": 46.2316, "ARG_OF_PERICENTER": 277.9556, "MEAN_ANOMALY": 49.3405, "EPHEMERIS_TYPE": 0, "CLASSIFICATION_TYPE": "U", "NORAD_CAT_ID": 66322, "ELEMENT_SET_NO": 999, "REV_AT_EPOCH": 524, "BSTAR": 0.0016460912, "MEAN_MOTION_DOT": 0.00068981, "MEAN_MOTION_DDOT": 0}, "tle": {"line1": "1 66322U 25253D   25336.25003472  .00068981  00000+0  16461-2 0  9999", "line2": "2 66322  43.0008  46.2316 0001691 277.9556  49.3405 15.40655905  5242"}}, "geometry": {"type": "Point", "coordinates": [18.64225329908395, -20.647148826924543]}}]}